STARLINK-30494          
1 57970U 23151G   26068.36049035 -.00001272  00000+0 -35691-4 0  9993
2 57970  43.0027 192.4566 0001155 241.5536 118.5200 15.28417441137406
STARLINK-32946          
1 63196U 25048P   26068.47550516  .00032162  00000+0  11731-2 0  9997
2 63196  43.0013  90.5347 0001440 268.9113  91.1574 15.27580841 57016
